[{"OBJECT_NAME":"WFOV (USA 332)","OBJECT_ID":"2022-073A","EPOCH":"2026-04-05T13:54:13.340448","MEAN_MOTION":1.00273593,"ECCENTRICITY":0.000186,"INCLINATION":3.5248,"RA_OF_ASC_NODE":79.4403,"ARG_OF_PERICENTER":253.9875,"MEAN_ANOMALY":188.2502,"EPHEMERIS_TYPE":0,"CLASSIFICATION_TYPE":"U","NORAD_CAT_ID":52940,"ELEMENT_SET_NO":999,"REV_AT_EPOCH":1364,"BSTAR":0,"MEAN_MOTION_DOT":-3.59e-6,"MEAN_MOTION_DDOT":0},{"OBJECT_NAME":"TIANLIAN 2-03","OBJECT_ID":"2022-078A","EPOCH":"2026-04-05T08:04:38.574048","MEAN_MOTION":1.00272552,"ECCENTRICITY":0.00029433,"INCLINATION":0.4861,"RA_OF_ASC_NODE":74.6131,"ARG_OF_PERICENTER":270.3779,"MEAN_ANOMALY":340.3809,"EPHEMERIS_TYPE":0,"CLASSIFICATION_TYPE":"U","NORAD_CAT_ID":53100,"ELEMENT_SET_NO":999,"REV_AT_EPOCH":1381,"BSTAR":0,"MEAN_MOTION_DOT":7.3e-7,"MEAN_MOTION_DDOT":0},{"OBJECT_NAME":"SBIRS GEO-6 (USA 336)","OBJECT_ID":"2022-092A","EPOCH":"2026-04-05T12:52:38.764992","MEAN_MOTION":1.00272149,"ECCENTRICITY":0.00022479,"INCLINATION":3.383,"RA_OF_ASC_NODE":316.3184,"ARG_OF_PERICENTER":57.3543,"MEAN_ANOMALY":152.3127,"EPHEMERIS_TYPE":0,"CLASSIFICATION_TYPE":"U","NORAD_CAT_ID":53355,"ELEMENT_SET_NO":999,"REV_AT_EPOCH":1350,"BSTAR":0,"MEAN_MOTION_DOT":-2.93e-6,"MEAN_MOTION_DDOT":0},{"OBJECT_NAME":"EUTELSAT KONNECT VHTS","OBJECT_ID":"2022-110A","EPOCH":"2026-04-05T08:04:38.574048","MEAN_MOTION":1.00271696,"ECCENTRICITY":0.0002952,"INCLINATION":0.0609,"RA_OF_ASC_NODE":100.1631,"ARG_OF_PERICENTER":253.1492,"MEAN_ANOMALY":324.1926,"EPHEMERIS_TYPE":0,"CLASSIFICATION_TYPE":"U","NORAD_CAT_ID":53765,"ELEMENT_SET_NO":999,"REV_AT_EPOCH":610,"BSTAR":0,"MEAN_MOTION_DOT":1.8e-7,"MEAN_MOTION_DDOT":0},{"OBJECT_NAME":"ZHONGXING-1E","OBJECT_ID":"2022-112A","EPOCH":"2026-04-05T14:57:30.042432","MEAN_MOTION":1.0026896,"ECCENTRICITY":0.00015548,"INCLINATION":0.0156,"RA_OF_ASC_NODE":47.7404,"ARG_OF_PERICENTER":274.731,"MEAN_ANOMALY":177.2319,"EPHEMERIS_TYPE":0,"CLASSIFICATION_TYPE":"U","NORAD_CAT_ID":53813,"ELEMENT_SET_NO":999,"REV_AT_EPOCH":1312,"BSTAR":0,"MEAN_MOTION_DOT":0,"MEAN_MOTION_DDOT":0},{"OBJECT_NAME":"SES-20","OBJECT_ID":"2022-123A","EPOCH":"2026-04-05T12:15:20.293920","MEAN_MOTION":1.00268865,"ECCENTRICITY":0.00017857,"INCLINATION":0.0378,"RA_OF_ASC_NODE":83.0471,"ARG_OF_PERICENTER":351.3433,"MEAN_ANOMALY":200.1475,"EPHEMERIS_TYPE":0,"CLASSIFICATION_TYPE":"U","NORAD_CAT_ID":53960,"ELEMENT_SET_NO":999,"REV_AT_EPOCH":1280,"BSTAR":0,"MEAN_MOTION_DOT":-9.9e-7,"MEAN_MOTION_DDOT":0},{"OBJECT_NAME":"SES-21","OBJECT_ID":"2022-123B","EPOCH":"2026-04-05T13:22:31.379232","MEAN_MOTION":1.00269356,"ECCENTRICITY":9.727e-5,"INCLINATION":0.0248,"RA_OF_ASC_NODE":69.8002,"ARG_OF_PERICENTER":296.163,"MEAN_ANOMALY":257.5189,"EPHEMERIS_TYPE":0,"CLASSIFICATION_TYPE":"U","NORAD_CAT_ID":53961,"ELEMENT_SET_NO":999,"REV_AT_EPOCH":648,"BSTAR":0,"MEAN_MOTION_DOT":7.1e-7,"MEAN_MOTION_DDOT":0},{"OBJECT_NAME":"GALAXY 33 (G-33)","OBJECT_ID":"2022-128A","EPOCH":"2026-04-05T12:44:38.685120","MEAN_MOTION":1.00271515,"ECCENTRICITY":0.00019915,"INCLINATION":0.0123,"RA_OF_ASC_NODE":214.7429,"ARG_OF_PERICENTER":168.9969,"MEAN_ANOMALY":228.2532,"EPHEMERIS_TYPE":0,"CLASSIFICATION_TYPE":"U","NORAD_CAT_ID":54026,"ELEMENT_SET_NO":999,"REV_AT_EPOCH":1301,"BSTAR":0,"MEAN_MOTION_DOT":0,"MEAN_MOTION_DDOT":0},{"OBJECT_NAME":"GALAXY 34 (G-34)","OBJECT_ID":"2022-128B","EPOCH":"2026-04-05T12:07:58.499616","MEAN_MOTION":1.00274718,"ECCENTRICITY":0.0001474,"INCLINATION":0.0183,"RA_OF_ASC_NODE":245.5721,"ARG_OF_PERICENTER":121.1131,"MEAN_ANOMALY":240.101,"EPHEMERIS_TYPE":0,"CLASSIFICATION_TYPE":"U","NORAD_CAT_ID":54027,"ELEMENT_SET_NO":999,"REV_AT_EPOCH":1318,"BSTAR":0,"MEAN_MOTION_DOT":6.0e-7,"MEAN_MOTION_DDOT":0},{"OBJECT_NAME":"ANGOSAT 2","OBJECT_ID":"2022-131A","EPOCH":"2026-04-05T06:00:31.960224","MEAN_MOTION":1.00272708,"ECCENTRICITY":0.0001225,"INCLINATION":0.0179,"RA_OF_ASC_NODE":187.1242,"ARG_OF_PERICENTER":282.6331,"MEAN_ANOMALY":196.9284,"EPHEMERIS_TYPE":0,"CLASSIFICATION_TYPE":"U","NORAD_CAT_ID":54033,"ELEMENT_SET_NO":999,"REV_AT_EPOCH":1274,"BSTAR":0,"MEAN_MOTION_DOT":1.37e-6,"MEAN_MOTION_DDOT":0},{"OBJECT_NAME":"EUTELSAT HOTBIRD 13F","OBJECT_ID":"2022-134A","EPOCH":"2026-04-05T07:56:38.865696","MEAN_MOTION":1.002724,"ECCENTRICITY":0.00020139,"INCLINATION":0.0531,"RA_OF_ASC_NODE":285.1473,"ARG_OF_PERICENTER":80.6237,"MEAN_ANOMALY":320.0296,"EPHEMERIS_TYPE":0,"CLASSIFICATION_TYPE":"U","NORAD_CAT_ID":54048,"ELEMENT_SET_NO":999,"REV_AT_EPOCH":1264,"BSTAR":0,"MEAN_MOTION_DOT":8.8e-7,"MEAN_MOTION_DDOT":0},{"OBJECT_NAME":"LDPE-2","OBJECT_ID":"2022-144A","EPOCH":"2026-04-05T06:32:28.896288","MEAN_MOTION":1.005418,"ECCENTRICITY":4.53e-5,"INCLINATION":5.4656,"RA_OF_ASC_NODE":64.0428,"ARG_OF_PERICENTER":354.4747,"MEAN_ANOMALY":8.2443,"EPHEMERIS_TYPE":0,"CLASSIFICATION_TYPE":"U","NORAD_CAT_ID":54219,"ELEMENT_SET_NO":999,"REV_AT_EPOCH":1111,"BSTAR":0,"MEAN_MOTION_DOT":-2.69e-6,"MEAN_MOTION_DDOT":0},{"OBJECT_NAME":"EUTELSAT HOTBIRD 13G","OBJECT_ID":"2022-146A","EPOCH":"2026-04-05T07:56:38.865696","MEAN_MOTION":1.00272622,"ECCENTRICITY":0.00019978,"INCLINATION":0.0423,"RA_OF_ASC_NODE":231.5268,"ARG_OF_PERICENTER":303.719,"MEAN_ANOMALY":150.5572,"EPHEMERIS_TYPE":0,"CLASSIFICATION_TYPE":"U","NORAD_CAT_ID":54225,"ELEMENT_SET_NO":999,"REV_AT_EPOCH":673,"BSTAR":0,"MEAN_MOTION_DOT":8.9e-7,"MEAN_MOTION_DDOT":0},{"OBJECT_NAME":"ZHONGXING-19","OBJECT_ID":"2022-148A","EPOCH":"2026-04-02T13:40:38.503776","MEAN_MOTION":1.00272198,"ECCENTRICITY":0.00024392,"INCLINATION":0.0299,"RA_OF_ASC_NODE":90.5303,"ARG_OF_PERICENTER":279.9636,"MEAN_ANOMALY":188.7496,"EPHEMERIS_TYPE":0,"CLASSIFICATION_TYPE":"U","NORAD_CAT_ID":54230,"ELEMENT_SET_NO":999,"REV_AT_EPOCH":1262,"BSTAR":0,"MEAN_MOTION_DOT":-8.7e-7,"MEAN_MOTION_DDOT":0},{"OBJECT_NAME":"GALAXY 31 (G-31)","OBJECT_ID":"2022-153A","EPOCH":"2026-04-05T11:29:36.210048","MEAN_MOTION":1.00272305,"ECCENTRICITY":0.00015575,"INCLINATION":0.0103,"RA_OF_ASC_NODE":211.2991,"ARG_OF_PERICENTER":178.5124,"MEAN_ANOMALY":215.3635,"EPHEMERIS_TYPE":0,"CLASSIFICATION_TYPE":"U","NORAD_CAT_ID":54243,"ELEMENT_SET_NO":999,"REV_AT_EPOCH":640,"BSTAR":0,"MEAN_MOTION_DOT":1.5e-7,"MEAN_MOTION_DDOT":0},{"OBJECT_NAME":"GALAXY 32 (G-32)","OBJECT_ID":"2022-153B","EPOCH":"2026-04-05T12:18:49.959072","MEAN_MOTION":1.00272031,"ECCENTRICITY":0.00029944,"INCLINATION":0.0187,"RA_OF_ASC_NODE":250.453,"ARG_OF_PERICENTER":124.2462,"MEAN_ANOMALY":272.8191,"EPHEMERIS_TYPE":0,"CLASSIFICATION_TYPE":"U","NORAD_CAT_ID":54244,"ELEMENT_SET_NO":999,"REV_AT_EPOCH":1241,"BSTAR":0,"MEAN_MOTION_DOT":-1.73e-6,"MEAN_MOTION_DDOT":0},{"OBJECT_NAME":"EUTELSAT 10B","OBJECT_ID":"2022-157A","EPOCH":"2026-04-05T08:04:38.574048","MEAN_MOTION":1.00269752,"ECCENTRICITY":0.00020402,"INCLINATION":0.0606,"RA_OF_ASC_NODE":95.8199,"ARG_OF_PERICENTER":13.6965,"MEAN_ANOMALY":215.2448,"EPHEMERIS_TYPE":0,"CLASSIFICATION_TYPE":"U","NORAD_CAT_ID":54259,"ELEMENT_SET_NO":999,"REV_AT_EPOCH":1229,"BSTAR":0,"MEAN_MOTION_DOT":6.9e-7,"MEAN_MOTION_DDOT":0}]
