WFOV (USA 332)          
1 52940U 22073A   26095.57932107 -.00000359  00000+0  00000+0 0  9996
2 52940   3.5248  79.4403 0001860 253.9875 188.2502  1.00273593 13645
TIANLIAN 2-03           
1 53100U 22078A   26095.33655757  .00000073  00000+0  00000+0 0  9999
2 53100   0.4861  74.6131 0002943 270.3779 340.3809  1.00272552 13819
SBIRS GEO-6 (USA 336)   
1 53355U 22092A   26095.53655978 -.00000293  00000+0  00000+0 0  9999
2 53355   3.3830 316.3184 0002247  57.3543 152.3127  1.00272149 13504
EUTELSAT KONNECT VHTS   
1 53765U 22110A   26095.33655757  .00000018  00000+0  00000+0 0  9992
2 53765   0.0609 100.1631 0002952 253.1492 324.1926  1.00271696  6105
ZHONGXING-1E            
1 53813U 22112A   26095.62326438  .00000000  00000+0  00000+0 0  9992
2 53813   0.0156  47.7404 0001554 274.7310 177.2319  1.00268960 13128
SES-20                  
1 53960U 22123A   26095.51065155 -.00000099  00000+0  00000+0 0  9990
2 53960   0.0378  83.0471 0001785 351.3433 200.1475  1.00268865 12805
SES-21                  
1 53961U 22123B   26095.55730763  .00000071  00000+0  00000+0 0  9998
2 53961   0.0248  69.8002 0000972 296.1630 257.5189  1.00269356  6487
GALAXY 33 (G-33)        
1 54026U 22128A   26095.53100330  .00000000  00000+0  00000+0 0  9997
2 54026   0.0123 214.7429 0001991 168.9969 228.2532  1.00271515 13013
GALAXY 34 (G-34)        
1 54027U 22128B   26095.50553819  .00000060  00000+0  00000+0 0  9995
2 54027   0.0183 245.5721 0001474 121.1131 240.1010  1.00274718 13185
ANGOSAT 2               
1 54033U 22131A   26095.25036991  .00000137  00000+0  00000+0 0  9990
2 54033   0.0179 187.1242 0001225 282.6331 196.9284  1.00272708 12744
EUTELSAT HOTBIRD 13F    
1 54048U 22134A   26095.33100539  .00000088  00000+0  00000+0 0  9993
2 54048   0.0531 285.1473 0002013  80.6237 320.0296  1.00272400 12645
LDPE-2                  
1 54219U 22144A   26095.27255667 -.00000269  00000+0  00000+0 0  9992
2 54219   5.4656  64.0428 0000453 354.4747   8.2443  1.00541800 11113
EUTELSAT HOTBIRD 13G    
1 54225U 22146A   26095.33100539  .00000089  00000+0  00000+0 0  9994
2 54225   0.0423 231.5268 0001997 303.7190 150.5572  1.00272622  6738
ZHONGXING-19            
1 54230U 22148A   26092.56989009 -.00000087  00000+0  00000+0 0  9990
2 54230   0.0299  90.5303 0002439 279.9636 188.7496  1.00272198 12620
GALAXY 31 (G-31)        
1 54243U 22153A   26095.47889132  .00000015  00000+0  00000+0 0  9999
2 54243   0.0103 211.2991 0001557 178.5124 215.3635  1.00272305  6400
GALAXY 32 (G-32)        
1 54244U 22153B   26095.51307823 -.00000173  00000+0  00000+0 0  9993
2 54244   0.0187 250.4530 0002994 124.2462 272.8191  1.00272031 12415
EUTELSAT 10B            
1 54259U 22157A   26095.33655757  .00000069  00000+0  00000+0 0  9998
2 54259   0.0606  95.8199 0002040  13.6965 215.2448  1.00269752 12298
